FLOCK 4G-18             
1 62680U 25009BZ  26068.19114186  .00011766  00000+0  44319-3 0  9995
2 62680  97.4054 150.5008 0004100 335.7331  24.3715 15.27241676121267
STARLINK-34155          
1 64019U 25101AB  26068.66670139  .00035482  00000+0  12939-2 0  9996
2 64019  43.0017 358.2204 0001407 280.9514 314.4148 15.27548469  5878
